1 74796U          19328.61944444  .00000000  00000-0  00000-0 0 00000
2 74796 097.5740 217.3190 0000000 000.0000 053.6600 15.01914300000000
1 74796U          19328.89027778  .00000000  00000-0  00000-0 0 00000
2 74796 097.5740 217.5860 0000000 000.0000 076.1590 15.01914300000000
1 74796U          19329.17916667  .00000000  00000-0  00000-0 0 00000
2 74796 097.5730 217.8710 0000000 000.0000 196.1590 15.01914300000000
1 74796U          19329.64305556  .00000000  00000-0  00000-0 0 00000
2 74796 097.5730 218.3280 0000000 000.0000 181.1580 15.01914300000000
1 74796U          19329.86597222  .00000000  00000-0  00000-0 0 00000
2 74796 097.5720 218.5480 0000000 000.0000 304.9080 15.01914300000000
1 74796U          19330.26527778  .00000000  00000-0  00000-0 0 00000
2 74796 097.5720 218.9410 0000000 000.0000 301.1580 15.01914300000000
1 74796U          19330.49722222  .00000000  00000-0  00000-0 0 00000
2 74796 097.5710 219.1700 0000000 000.0000 113.6570 15.01914300000000
1 74796U          19330.81736111  .00000000  00000-0  00000-0 0 00000
2 74796 097.5710 219.4850 0000000 000.0000 042.4070 15.01914300000000
1 74796U          19331.16597222  .00000000  00000-0  00000-0 0 00000
2 74796 097.5700 219.8290 0000000 000.0000 124.9070 15.01914300000000
1 74796U          19331.49097222  .00000000  00000-0  00000-0 0 00000
2 74796 097.5700 220.1490 0000000 000.0000 079.9060 15.01914300000000
1 74796U          19331.94305556  .00000000  00000-0  00000-0 0 00000
2 74796 097.5690 220.5940 0000000 000.0000 001.1560 15.01914300000000
1 74796U          19332.28055556  .00000000  00000-0  00000-0 0 00000
2 74796 097.5690 220.9270 0000000 000.0000 023.6550 15.01914300000000
1 74796U          19332.63194444  .00000000  00000-0  00000-0 0 00000
2 74796 097.5680 221.2730 0000000 000.0000 121.1550 15.01914300000000
1 74796U          19332.82361111  .00000000  00000-0  00000-0 0 00000
2 74796 097.5680 221.4620 0000000 000.0000 076.1550 15.01914300000000
